CTC1_L_00059001-01
1 10000U 26758DQ  26075.70030093  .00000000  00000+0  00000-0 0  9990
2 10000  50.0000   0.0000 0000000   0.0000   0.0000 14.98995063    13
CTC1_L_00059001-02
1 10001U 24845AF  26075.70030093  .00000000  00000+0  00000-0 0  9996
2 10001  50.0000   0.0000 0000000   0.0000  90.0000 14.98995063    13
CTC1_L_00059001-03
1 10002U 22722ZM  26075.70030093  .00000000  00000+0  00000-0 0  9999
2 10002  50.0000   0.0000 0000000   0.0000 180.0000 14.98995063    14
CTC1_L_00059001-04
1 10003U 24128ZH  26075.70030093  .00000000  00000+0  00000-0 0  9992
2 10003  50.0000   0.0000 0000000   0.0000 270.0000 14.98995063    15
CTC1_L_00059002-01
1 10004U 23167EH  26075.70030093  .00000000  00000+0  00000-0 0  9995
2 10004  50.0000  12.0000 0000000   0.0000  12.0000 14.98995063    13
CTC1_L_00059002-02
1 10005U 24673ST  26075.70030093  .00000000  00000+0  00000-0 0  9999
2 10005  50.0000  12.0000 0000000   0.0000 102.0000 14.98995063    14
CTC1_L_00059002-03
1 10006U 22882UO  26075.70030093  .00000000  00000+0  00000-0 0  9990
2 10006  50.0000  12.0000 0000000   0.0000 192.0000 14.98995063    14
CTC1_L_00059002-04
1 10007U 26545TX  26075.70030093  .00000000  00000+0  00000-0 0  9991
2 10007  50.0000  12.0000 0000000   0.0000 282.0000 14.98995063    15
CTC1_L_00059003-01
1 10008U 24818RQ  26075.70030093  .00000000  00000+0  00000-0 0  9993
2 10008  50.0000  24.0000 0000000   0.0000  24.0000 14.98995063    13
CTC1_L_00059003-02
1 10009U 23314SE  26075.70030093  .00000000  00000+0  00000-0 0  9994
2 10009  50.0000  24.0000 0000000   0.0000 114.0000 14.98995063    14
CTC1_L_00059003-03
1 10010U 22572QL  26075.70030093  .00000000  00000+0  00000-0 0  9991
2 10010  50.0000  24.0000 0000000   0.0000 204.0000 14.98995063    16
CTC1_L_00059003-04
1 10011U 22543EH  26075.70030093  .00000000  00000+0  00000-0 0  9990
2 10011  50.0000  24.0000 0000000   0.0000 294.0000 14.98995063    16
CTC1_L_00059004-01
1 10012U 26346GX  26075.70030093  .00000000  00000+0  00000-0 0  9996
2 10012  50.0000  36.0000 0000000   0.0000  36.0000 14.98995063    14
CTC1_L_00059004-02
1 10013U 26941OK  26075.70030093  .00000000  00000+0  00000-0 0  9998
2 10013  50.0000  36.0000 0000000   0.0000 126.0000 14.98995063    15
CTC1_L_00059004-03
1 10014U 26233LC  26075.70030093  .00000000  00000+0  00000-0 0  9993
2 10014  50.0000  36.0000 0000000   0.0000 216.0000 14.98995063    16
CTC1_L_00059004-04
1 10015U 26972QZ  26075.70030093  .00000000  00000+0  00000-0 0  9994
2 10015  50.0000  36.0000 0000000   0.0000 306.0000 14.98995063    17
CTC1_L_00059005-01
1 10016U 23850RT  26075.70030093  .00000000  00000+0  00000-0 0  9997
2 10016  50.0000  48.0000 0000000   0.0000  48.0000 14.98995063    14
CTC1_L_00059005-02
1 10017U 22421ZS  26075.70030093  .00000000  00000+0  00000-0 0  9991
2 10017  50.0000  48.0000 0000000   0.0000 138.0000 14.98995063    15
CTC1_L_00059005-03
1 10018U 23031IX  26075.70030093  .00000000  00000+0  00000-0 0  9990
2 10018  50.0000  48.0000 0000000   0.0000 228.0000 14.98995063    16
CTC1_L_00059005-04
1 10019U 26841AS  26075.70030093  .00000000  00000+0  00000-0 0  9993
2 10019  50.0000  48.0000 0000000   0.0000 318.0000 14.98995063    17
CTC1_L_00059006-01
1 10020U 23579IO  26075.70030093  .00000000  00000+0  00000-0 0  9990
2 10020  50.0000  60.0000 0000000   0.0000  60.0000 14.98995063    17
CTC1_L_00059006-02
1 10021U 25174VB  26075.70030093  .00000000  00000+0  00000-0 0  9994
2 10021  50.0000  60.0000 0000000   0.0000 150.0000 14.98995063    18
CTC1_L_00059006-03
1 10022U 25158AY  26075.70030093  .00000000  00000+0  00000-0 0  9997
2 10022  50.0000  60.0000 0000000   0.0000 240.0000 14.98995063    19
CTC1_L_00059006-04
1 10023U 25441EM  26075.70030093  .00000000  00000+0  00000-0 0  9993
2 10023  50.0000  60.0000 0000000   0.0000 330.0000 14.98995063    10
CTC1_L_00059007-01
1 10024U 22804CN  26075.70030093  .00000000  00000+0  00000-0 0  9994
2 10024  50.0000  72.0000 0000000   0.0000  72.0000 14.98995063    17
CTC1_L_00059007-02
1 10025U 23081RM  26075.70030093  .00000000  00000+0  00000-0 0  9993
2 10025  50.0000  72.0000 0000000   0.0000 162.0000 14.98995063    18
CTC1_L_00059007-03
1 10026U 22690ID  26075.70030093  .00000000  00000+0  00000-0 0  9999
2 10026  50.0000  72.0000 0000000   0.0000 252.0000 14.98995063    19
CTC1_L_00059007-04
1 10027U 22444DF  26075.70030093  .00000000  00000+0  00000-0 0  9997
2 10027  50.0000  72.0000 0000000   0.0000 342.0000 14.98995063    10
CTC1_L_00059008-01
1 10028U 25004BJ  26075.70030093  .00000000  00000+0  00000-0 0  9993
2 10028  50.0000  84.0000 0000000   0.0000  84.0000 14.98995063    17
CTC1_L_00059008-02
1 10029U 22270OT  26075.70030093  .00000000  00000+0  00000-0 0  9996
2 10029  50.0000  84.0000 0000000   0.0000 174.0000 14.98995063    18
CTC1_L_00059008-03
1 10030U 23842OM  26075.70030093  .00000000  00000+0  00000-0 0  9994
2 10030  50.0000  84.0000 0000000   0.0000 264.0000 14.98995063    10
CTC1_L_00059008-04
1 10031U 23534NW  26075.70030093  .00000000  00000+0  00000-0 0  9993
2 10031  50.0000  84.0000 0000000   0.0000 354.0000 14.98995063    11
CTC1_L_00059009-01
1 10032U 23594WT  26075.70030093  .00000000  00000+0  00000-0 0  9990
2 10032  50.0000  96.0000 0000000   0.0000  96.0000 14.98995063    18
CTC1_L_00059009-02
1 10033U 23312OT  26075.70030093  .00000000  00000+0  00000-0 0  9999
2 10033  50.0000  96.0000 0000000   0.0000 186.0000 14.98995063    19
CTC1_L_00059009-03
1 10034U 25684LM  26075.70030093  .00000000  00000+0  00000-0 0  9994
2 10034  50.0000  96.0000 0000000   0.0000 276.0000 14.98995063    10
CTC1_L_00059009-04
1 10035U 22693MR  26075.70030093  .00000000  00000+0  00000-0 0  9992
2 10035  50.0000  96.0000 0000000   0.0000   6.0000 14.98995063    12
CTC1_L_00059010-01
1 10036U 24696H   26075.70030093  .00000000  00000+0  00000-0 0  9998
2 10036  50.0000 108.0000 0000000   0.0000 108.0000 14.98995063    10
CTC1_L_00059010-02
1 10037U 26316NX  26075.70030093  .00000000  00000+0  00000-0 0  9990
2 10037  50.0000 108.0000 0000000   0.0000 198.0000 14.98995063    10
CTC1_L_00059010-03
1 10038U 23902VU  26075.70030093  .00000000  00000+0  00000-0 0  9999
2 10038  50.0000 108.0000 0000000   0.0000 288.0000 14.98995063    11
CTC1_L_00059010-04
1 10039U 24422DB  26075.70030093  .00000000  00000+0  00000-0 0  9998
2 10039  50.0000 108.0000 0000000   0.0000  18.0000 14.98995063    13
CTC1_L_00059011-01
1 10040U 25537GR  26075.70030093  .00000000  00000+0  00000-0 0  9998
2 10040  50.0000 120.0000 0000000   0.0000 120.0000 14.98995063    13
CTC1_L_00059011-02
1 10041U 26665DH  26075.70030093  .00000000  00000+0  00000-0 0  9992
2 10041  50.0000 120.0000 0000000   0.0000 210.0000 14.98995063    14
CTC1_L_00059011-03
1 10042U 24703HO  26075.70030093  .00000000  00000+0  00000-0 0  9994
2 10042  50.0000 120.0000 0000000   0.0000 300.0000 14.98995063    15
CTC1_L_00059011-04
1 10043U 26413KS  26075.70030093  .00000000  00000+0  00000-0 0  9995
2 10043  50.0000 120.0000 0000000   0.0000  30.0000 14.98995063    16
CTC1_L_00059012-01
1 10044U 22936HX  26075.70030093  .00000000  00000+0  00000-0 0  9992
2 10044  50.0000 132.0000 0000000   0.0000 132.0000 14.98995063    13
CTC1_L_00059012-02
1 10045U 26285JJ  26075.70030093  .00000000  00000+0  00000-0 0  9994
2 10045  50.0000 132.0000 0000000   0.0000 222.0000 14.98995063    14
CTC1_L_00059012-03
1 10046U 26487TB  26075.70030093  .00000000  00000+0  00000-0 0  9999
2 10046  50.0000 132.0000 0000000   0.0000 312.0000 14.98995063    15
CTC1_L_00059012-04
1 10047U 24972GG  26075.70030093  .00000000  00000+0  00000-0 0  9997
2 10047  50.0000 132.0000 0000000   0.0000  42.0000 14.98995063    16
CTC1_L_00059013-01
1 10048U 22740CF  26075.70030093  .00000000  00000+0  00000-0 0  9999
2 10048  50.0000 144.0000 0000000   0.0000 144.0000 14.98995063    13
CTC1_L_00059013-02
1 10049U 25611RI  26075.70030093  .00000000  00000+0  00000-0 0  9990
2 10049  50.0000 144.0000 0000000   0.0000 234.0000 14.98995063    14
CTC1_L_00059013-03
1 10050U 23311KS  26075.70030093  .00000000  00000+0  00000-0 0  9997
2 10050  50.0000 144.0000 0000000   0.0000 324.0000 14.98995063    16
CTC1_L_00059013-04
1 10051U 23746RN  26075.70030093  .00000000  00000+0  00000-0 0  9990
2 10051  50.0000 144.0000 0000000   0.0000  54.0000 14.98995063    17
CTC1_L_00059014-01
1 10052U 25824HE  26075.70030093  .00000000  00000+0  00000-0 0  9990
2 10052  50.0000 156.0000 0000000   0.0000 156.0000 14.98995063    14
CTC1_L_00059014-02
1 10053U 24540HR  26075.70030093  .00000000  00000+0  00000-0 0  9995
2 10053  50.0000 156.0000 0000000   0.0000 246.0000 14.98995063    15
CTC1_L_00059014-03
1 10054U 22189MO  26075.70030093  .00000000  00000+0  00000-0 0  9993
2 10054  50.0000 156.0000 0000000   0.0000 336.0000 14.98995063    16
CTC1_L_00059014-04
1 10055U 26912B   26075.70030093  .00000000  00000+0  00000-0 0  9992
2 10055  50.0000 156.0000 0000000   0.0000  66.0000 14.98995063    17
CTC1_L_00059015-01
1 10056U 24697ZI  26075.70030093  .00000000  00000+0  00000-0 0  9991
2 10056  50.0000 168.0000 0000000   0.0000 168.0000 14.98995063    14
CTC1_L_00059015-02
1 10057U 22347TW  26075.70030093  .00000000  00000+0  00000-0 0  9992
2 10057  50.0000 168.0000 0000000   0.0000 258.0000 14.98995063    15
CTC1_L_00059015-03
1 10058U 25165IX  26075.70030093  .00000000  00000+0  00000-0 0  9994
2 10058  50.0000 168.0000 0000000   0.0000 348.0000 14.98995063    16
CTC1_L_00059015-04
1 10059U 25731GL  26075.70030093  .00000000  00000+0  00000-0 0  9994
2 10059  50.0000 168.0000 0000000   0.0000  78.0000 14.98995063    17
CTC1_L_00059016-01
1 10060U 24115JZ  26075.70030093  .00000000  00000+0  00000-0 0  9991
2 10060  50.0000 180.0000 0000000   0.0000 180.0000 14.98995063    17
CTC1_L_00059016-02
1 10061U 24193RA  26075.70030093  .00000000  00000+0  00000-0 0  9998
2 10061  50.0000 180.0000 0000000   0.0000 270.0000 14.98995063    18
